; Start G-code
M109 S200 ; extruder temperature to 200°C
M190 S60 ; bed temperature to 60°C
M17 ; Start motors

G1 X0.0968743656772326 Y-0.735209952012993 Z0.308492638596416 I0.260019851180486 J0.655495516128574 K-0.65599185648697 W0.269053878526572 F80
G1 X0.096874363770453 Y-0.735209952553358 Z0.308492543168854 I0.164086256629365 J0.685828254782456 K-0.687605222214801 W0.172957693411848 F80
G1 X0.0968743350571736 Y-0.735209953380392 Z0.308492452145719 I0.0648123234832403 J0.702199442749203 K-0.705220863154032 W0.0733405719891474 F80
G1 X0.0968742818635841 Y-0.735209954427094 Z0.308492372901199 I0.0357810078258326 J-0.704275808296405 K0.708480173980159 W0.0277695589532238 F80
G1 X0.096874208499133 Y-0.735209955608664 Z0.308492311855243 I0.135645937598649 J-0.692015082411916 K0.697316804214055 W0.128314379116722 F80
G1 X0.0968741209073993 Y-0.735209956829381 Z0.308492273953456 I0.232749494359953 J-0.66566685928306 K0.67195800893269 W0.226247076353768 F80
G1 X0.0968740261845773 Y-0.735209957990346 Z0.308492262266427 I0.325114920488329 J-0.62576751525503 K0.632920022489514 W0.319574014055095 F80
G1 X0.0968739320045823 Y-0.735209958997506 Z0.308492277740976 I0.410861913488748 J-0.573129289704297 K0.580997549422652 W0.40639531603143 F80
G1 X0.0968738459973529 Y-0.735209959769267 Z0.308492319123441 I0.488244903707731 J-0.508823750110011 K0.517247586486713 W0.48494354269449 F80
G1 X0.0968737751307158 Y-0.735209960243103 Z0.308492383061244 I0.555688589263606 J-0.434159977928425 K0.442967905146532 W0.553619671198113 F80
G1 X0.0969264366216148 Y-0.739755088148471 Z0.308517067901976 I0.555688589263606 J-0.434159977928425 K0.442967905146532 W0.553619671198113 F80
G1 X0.096926507488252 Y-0.739755087674635 Z0.308517003964172 I0.488244903707731 J-0.508823750110011 K0.517247586486713 W0.48494354269449 F80
G1 X0.0969265934954814 Y-0.739755086902874 Z0.308516962581708 I0.410861913488748 J-0.573129289704297 K0.580997549422652 W0.40639531603143 F80
G1 X0.0969266876754763 Y-0.739755085895714 Z0.308516947107159 I0.325114920488329 J-0.62576751525503 K0.632920022489514 W0.319574014055095 F80
G1 X0.0969267823982983 Y-0.739755084734748 Z0.308516958794187 I0.232749494359953 J-0.66566685928306 K0.67195800893269 W0.226247076353768 F80
G1 X0.0969268699900321 Y-0.739755083514032 Z0.308516996695975 I0.135645937598649 J-0.692015082411916 K0.697316804214055 W0.128314379116722 F80
G1 X0.0969269433544832 Y-0.739755082332461 Z0.308517057741931 I0.0357810078258326 J-0.704275808296405 K0.708480173980159 W0.0277695589532238 F80
G1 X0.0969269965480726 Y-0.73975508128576 Z0.30851713698645 I0.0648123234832403 J0.702199442749203 K-0.705220863154032 W0.0733405719891474 F80
G1 X0.0969270252613521 Y-0.739755080458726 Z0.308517228009585 I0.164086256629365 J0.685828254782456 K-0.687605222214801 W0.172957693411848 F80
G1 X0.0969270271681316 Y-0.739755079918361 Z0.308517323437148 I0.260019851180486 J0.655495516128574 K-0.65599185648697 W0.269053878526572 F80
G1 X0.0969270021139346 Y-0.739755079708442 Z0.308517415538128 I0.350660166683095 J0.611818716757154 K-0.611024325936057 W0.359672876989355 F80
G1 X0.0969796624463128 Y-0.744300107623755 Z0.308542099835809 I0.350660166683095 J0.611818716757154 K-0.611024325936057 W0.359672876989355 F80
G1 X0.0969796875005099 Y-0.744300107833674 Z0.308542007734828 I0.260019851180486 J0.655495516128573 K-0.65599185648697 W0.269053878526572 F80
G1 X0.0969796855937303 Y-0.744300108374039 Z0.308541912307265 I0.164086256629365 J0.685828254782456 K-0.687605222214801 W0.172957693411848 F80
G1 X0.0969796568804509 Y-0.744300109201073 Z0.308541821284131 I0.0648123234832403 J0.702199442749203 K-0.705220863154032 W0.0733405719891474 F80
G1 X0.0969796036868614 Y-0.744300110247774 Z0.308541742039611 I0.0357810078258326 J-0.704275808296405 K0.708480173980159 W0.0277695589532238 F80
G1 X0.0969795303224103 Y-0.744300111429345 Z0.308541680993655 I0.135645937598649 J-0.692015082411916 K0.697316804214055 W0.128314379116722 F80
G1 X0.0969794427306766 Y-0.744300112650061 Z0.308541643091867 I0.232749494359953 J-0.66566685928306 K0.67195800893269 W0.226247076353768 F80
G1 X0.0969793480078546 Y-0.744300113811027 Z0.308541631404839 I0.325114920488329 J-0.62576751525503 K0.632920022489514 W0.319574014055095 F80
G1 X0.0969792538278596 Y-0.744300114818187 Z0.308541646879388 I0.410861913488748 J-0.573129289704297 K0.580997549422652 W0.40639531603143 F80
G1 X0.0969791678206302 Y-0.744300115589948 Z0.308541688261852 I0.488244903707731 J-0.508823750110011 K0.517247586486713 W0.48494354269449 F80
G1 X0.0969790969539931 Y-0.744300116063784 Z0.308541752199656 I0.555688589263606 J-0.434159977928425 K0.442967905146532 W0.553619671198113 F80
G1 X0.0970317584448859 Y-0.748845243968618 Z0.308566437040384 I0.555688589263606 J-0.434159977928425 K0.442967905146532 W0.553619671198113 F80
G1 X0.0970318293115231 Y-0.748845243494781 Z0.308566373102581 I0.488244903707731 J-0.508823750110011 K0.517247586486713 W0.48494354269449 F80
G1 X0.0970319153187525 Y-0.748845242723021 Z0.308566331720117 I0.410861913488748 J-0.573129289704297 K0.580997549422652 W0.40639531603143 F80
G1 X0.0970320094987474 Y-0.748845241715861 Z0.308566316245568 I0.325114920488329 J-0.62576751525503 K0.632920022489514 W0.319574014055095 F80
G1 X0.0970321042215694 Y-0.748845240554895 Z0.308566327932596 I0.232749494359953 J-0.66566685928306 K0.67195800893269 W0.226247076353768 F80
G1 X0.0970321918133032 Y-0.748845239334179 Z0.308566365834384 I0.135645937598649 J-0.692015082411916 K0.697316804214055 W0.128314379116722 F80
G1 X0.0970322651777543 Y-0.748845238152608 Z0.308566426880339 I0.0357810078258326 J-0.704275808296405 K0.708480173980159 W0.0277695589532238 F80
G1 X0.0970323183713438 Y-0.748845237105907 Z0.308566506124859 I0.0648123234832403 J0.702199442749203 K-0.705220863154032 W0.0733405719891469 F80
G1 X0.0970323470846232 Y-0.748845236278873 Z0.308566597147994 I0.164086256629365 J0.685828254782456 K-0.687605222214801 W0.172957693411848 F80
G1 X0.0970323489914027 Y-0.748845235738508 Z0.308566692575557 I0.260019851180486 J0.655495516128574 K-0.65599185648697 W0.269053878526572 F80
G1 X0.0970323239372057 Y-0.748845235528589 Z0.308566784676537 I0.350660166683095 J0.611818716757154 K-0.611024325936057 W0.359672876989355 F80
G1 X0.0970849842695496 Y-0.753390263440944 Z0.308591468974201 I0.350660166683095 J0.611818716757154 K-0.611024325936057 W0.359672876989355 F80
G1 X0.0970850093237467 Y-0.753390263650863 Z0.308591376873221 I0.260019851180486 J0.655495516128574 K-0.65599185648697 W0.269053878526572 F80
G1 X0.0970850074169672 Y-0.753390264191228 Z0.308591281445658 I0.164086256629365 J0.685828254782456 K-0.687605222214801 W0.172957693411848 F80
G1 X0.0970849787036877 Y-0.753390265018262 Z0.308591190422523 I0.0648123234832403 J0.702199442749203 K-0.705220863154032 W0.0733405719891469 F80
G1 X0.0970849255100983 Y-0.753390266064963 Z0.308591111178003 I0.0357810078258326 J-0.704275808296405 K0.708480173980159 W0.0277695589532238 F80
G1 X0.0970848521456471 Y-0.753390267246534 Z0.308591050132048 I0.135645937598649 J-0.692015082411916 K0.697316804214055 W0.128314379116722 F80
G1 X0.0970847645539134 Y-0.75339026846725 Z0.30859101223026 I0.232749494359953 J-0.66566685928306 K0.67195800893269 W0.226247076353768 F80
G1 X0.0970846698310914 Y-0.753390269628216 Z0.308591000543232 I0.325114920488329 J-0.62576751525503 K0.632920022489514 W0.319574014055095 F80
G1 X0.0970845756510964 Y-0.753390270635376 Z0.308591016017781 I0.410861913488748 J-0.573129289704297 K0.580997549422652 W0.40639531603143 F80
G1 X0.0970844896438671 Y-0.753390271407137 Z0.308591057400245 I0.488244903707731 J-0.508823750110011 K0.517247586486713 W0.48494354269449 F80
G1 X0.0970844187772299 Y-0.753390271880973 Z0.308591121338048 I0.555688589263606 J-0.434159977928425 K0.442967905146532 W0.553619671198113 F80
G1 X0.0971370802681278 Y-0.757935399786238 Z0.308615806178779 I0.555688589263606 J-0.434159977928425 K0.442967905146532 W0.553619671198113 F80
G1 X0.097137151134765 Y-0.757935399312402 Z0.308615742240976 I0.488244903707731 J-0.508823750110011 K0.517247586486713 W0.48494354269449 F80
G1 X0.0971372371419943 Y-0.757935398540641 Z0.308615700858512 I0.410861913488748 J-0.573129289704297 K0.580997549422652 W0.40639531603143 F80
G1 X0.0971373313219893 Y-0.757935397533481 Z0.308615685383963 I0.325114920488329 J-0.62576751525503 K0.632920022489514 W0.319574014055095 F80
G1 X0.0971374260448113 Y-0.757935396372515 Z0.308615697070991 I0.232749494359953 J-0.66566685928306 K0.67195800893269 W0.226247076353768 F80
G1 X0.097137513636545 Y-0.757935395151799 Z0.308615734972779 I0.135645937598649 J-0.692015082411916 K0.697316804214055 W0.128314379116722 F80
G1 X0.0971375870009962 Y-0.757935393970228 Z0.308615796018734 I0.0357810078258326 J-0.704275808296405 K0.708480173980159 W0.0277695589532238 F80
G1 X0.0971376401945856 Y-0.757935392923527 Z0.308615875263254 I0.0648123234832403 J0.702199442749203 K-0.705220863154032 W0.0733405719891474 F80
G1 X0.0971376689078651 Y-0.757935392096493 Z0.308615966286389 I0.164086256629365 J0.685828254782456 K-0.687605222214801 W0.172957693411848 F80
G1 X0.0971376708146446 Y-0.757935391556128 Z0.308616061713952 I0.260019851180486 J0.655495516128573 K-0.65599185648697 W0.269053878526572 F80
G1 X0.0971376457604475 Y-0.757935391346209 Z0.308616153814932 I0.350660166683095 J0.611818716757154 K-0.611024325936057 W0.359672876989355 F80
G1 X0.0971903060928052 Y-0.762480419259748 Z0.308640838112603 I0.350660166683095 J0.611818716757154 K-0.611024325936057 W0.359672876989355 F80
G1 X0.0971903311470023 Y-0.762480419469666 Z0.308640746011622 I0.260019851180486 J0.655495516128574 K-0.65599185648697 W0.269053878526572 F80
G1 X0.0971903292402227 Y-0.762480420010031 Z0.30864065058406 I0.164086256629365 J0.685828254782456 K-0.687605222214801 W0.172957693411848 F80
G1 X0.0971903005269433 Y-0.762480420837065 Z0.308640559560925 I0.0648123234832403 J0.702199442749203 K-0.705220863154032 W0.0733405719891474 F80
G1 X0.0971902473333538 Y-0.762480421883767 Z0.308640480316405 I0.0357810078258326 J-0.704275808296405 K0.708480173980159 W0.0277695589532238 F80
G1 X0.0971901739689027 Y-0.762480423065338 Z0.308640419270449 I0.135645937598649 J-0.692015082411916 K0.697316804214055 W0.128314379116722 F80
G1 X0.0971900863771689 Y-0.762480424286054 Z0.308640381368662 I0.232749494359953 J-0.66566685928306 K0.67195800893269 W0.226247076353768 F80
G1 X0.097189991654347 Y-0.762480425447019 Z0.308640369681633 I0.325114920488329 J-0.62576751525503 K0.632920022489514 W0.319574014055095 F80
G1 X0.097189897474352 Y-0.76248042645418 Z0.308640385156182 I0.410861913488748 J-0.573129289704297 K0.580997549422652 W0.40639531603143 F80
G1 X0.0971898114671226 Y-0.76248042722594 Z0.308640426538647 I0.488244903707731 J-0.508823750110011 K0.517247586486713 W0.48494354269449 F80
G1 X0.0971897406004855 Y-0.762480427699777 Z0.30864049047645 I0.555688589263606 J-0.434159977928425 K0.442967905146532 W0.553619671198113 F80
G1 X0.0972424020913833 Y-0.767025555605043 Z0.308665175317181 I0.555688589263606 J-0.434159977928425 K0.442967905146532 W0.553619671198113 F80
G1 X0.0972424729580205 Y-0.767025555131206 Z0.308665111379378 I0.488244903707731 J-0.508823750110011 K0.517247586486713 W0.48494354269449 F80
G1 X0.0972425589652499 Y-0.767025554359446 Z0.308665069996913 I0.410861913488748 J-0.573129289704297 K0.580997549422652 W0.40639531603143 F80
G1 X0.0972426531452448 Y-0.767025553352286 Z0.308665054522364 I0.325114920488329 J-0.62576751525503 K0.632920022489514 W0.319574014055095 F80
G1 X0.0972427478680668 Y-0.76702555219132 Z0.308665066209393 I0.232749494359953 J-0.66566685928306 K0.67195800893269 W0.226247076353768 F80
G1 X0.0972428354598006 Y-0.767025550970604 Z0.30866510411118 I0.135645937598649 J-0.692015082411916 K0.697316804214055 W0.128314379116722 F80
G1 X0.0972429088242517 Y-0.767025549789033 Z0.308665165157136 I0.0357810078258326 J-0.704275808296405 K0.708480173980159 W0.0277695589532238 F80
G1 X0.0972429620178412 Y-0.767025548742331 Z0.308665244401656 I0.0648123234832403 J0.702199442749203 K-0.705220863154032 W0.0733405719891474 F80
G1 X0.0972429907311206 Y-0.767025547915297 Z0.308665335424791 I0.164086256629365 J0.685828254782456 K-0.687605222214801 W0.172957693411848 F80
G1 X0.0972429926379001 Y-0.767025547374932 Z0.308665430852353 I0.260019851180486 J0.655495516128574 K-0.65599185648697 W0.269053878526572 F80
G1 X0.0972429675837031 Y-0.767025547165014 Z0.308665522953334 I0.350660166683095 J0.611818716757154 K-0.611024325936057 W0.359672876989355 F80
G1 X0.0972956279160471 Y-0.771570575077371 Z0.308690207250998 I0.350660166683095 J0.611818716757154 K-0.611024325936057 W0.359672876989355 F80
G1 X0.0972956529702441 Y-0.77157057528729 Z0.308690115150017 I0.260019851180486 J0.655495516128574 K-0.65599185648697 W0.269053878526572 F80
G1 X0.0972956510634646 Y-0.771570575827655 Z0.308690019722455 I0.164086256629365 J0.685828254782456 K-0.687605222214801 W0.172957693411848 F80
G1 X0.0972956223501852 Y-0.771570576654689 Z0.30868992869932 I0.0648123234832403 J0.702199442749203 K-0.705220863154032 W0.0733405719891469 F80
G1 X0.0972955691565957 Y-0.77157057770139 Z0.3086898494548 I0.0357810078258326 J-0.704275808296405 K0.708480173980159 W0.0277695589532238 F80
G1 X0.0972954957921446 Y-0.771570578882961 Z0.308689788408844 I0.135645937598649 J-0.692015082411916 K0.697316804214055 W0.128314379116722 F80
G1 X0.0972954082004108 Y-0.771570580103677 Z0.308689750507057 I0.232749494359953 J-0.66566685928306 K0.67195800893269 W0.226247076353768 F80
G1 X0.0972953134775888 Y-0.771570581264643 Z0.308689738820028 I0.325114920488329 J-0.62576751525503 K0.632920022489514 W0.319574014055095 F80
G1 X0.0972952192975939 Y-0.771570582271803 Z0.308689754294577 I0.410861913488748 J-0.573129289704297 K0.580997549422652 W0.40639531603143 F80
G1 X0.0972951332903645 Y-0.771570583043564 Z0.308689795677042 I0.488244903707731 J-0.508823750110011 K0.517247586486713 W0.48494354269449 F80
G1 X0.0972950624237273 Y-0.7715705835174 Z0.308689859614845 I0.555688589263606 J-0.434159977928425 K0.442967905146532 W0.553619671198113 F80
G1 X0.0973477239146203 Y-0.776115711422245 Z0.308714544455574 I0.555688589263606 J-0.434159977928425 K0.442967905146532 W0.553619671198113 F80
G1 X0.0973477947812575 Y-0.776115710948409 Z0.30871448051777 I0.488244903707731 J-0.508823750110011 K0.517247586486713 W0.48494354269449 F80
G1 X0.0973478807884869 Y-0.776115710176648 Z0.308714439135306 I0.410861913488748 J-0.573129289704297 K0.580997549422652 W0.40639531603143 F80
G1 X0.0973479749684818 Y-0.776115709169488 Z0.308714423660757 I0.325114920488329 J-0.62576751525503 K0.632920022489514 W0.319574014055095 F80
G1 X0.0973480696913038 Y-0.776115708008522 Z0.308714435347785 I0.232749494359953 J-0.66566685928306 K0.67195800893269 W0.226247076353768 F80
G1 X0.0973481572830376 Y-0.776115706787806 Z0.308714473249573 I0.135645937598649 J-0.692015082411916 K0.697316804214055 W0.128314379116722 F80
G1 X0.0973482306474887 Y-0.776115705606235 Z0.308714534295529 I0.0357810078258326 J-0.704275808296405 K0.708480173980159 W0.0277695589532238 F80
G1 X0.0973482838410782 Y-0.776115704559534 Z0.308714613540049 I0.0648123234832403 J0.702199442749203 K-0.705220863154032 W0.0733405719891474 F80
G1 X0.0973483125543576 Y-0.7761157037325 Z0.308714704563183 I0.164086256629365 J0.685828254782456 K-0.687605222214801 W0.172957693411848 F80
G1 X0.0973483144611371 Y-0.776115703192135 Z0.308714799990746 I0.260019851180486 J0.655495516128573 K-0.65599185648697 W0.269053878526572 F80
G1 X0.0973482894069401 Y-0.776115702982216 Z0.308714892091727 I0.350660166683095 J0.611818716757154 K-0.611024325936057 W0.359672876989355 F80
G1 X0.0974009497393182 Y-0.780660730897515 Z0.308739576389407 I0.350660166683095 J0.611818716757154 K-0.611024325936057 W0.359672876989355 F80
G1 X0.0974009747935152 Y-0.780660731107434 Z0.308739484288426 I0.260019851180486 J0.655495516128574 K-0.65599185648697 W0.269053878526572 F80
G1 X0.0974009728867357 Y-0.780660731647799 Z0.308739388860863 I0.164086256629365 J0.685828254782456 K-0.687605222214801 W0.172957693411848 F80
G1 X0.0974009441734562 Y-0.780660732474833 Z0.308739297837729 I0.0648123234832403 J0.702199442749203 K-0.705220863154032 W0.0733405719891474 F80
G1 X0.0974008909798668 Y-0.780660733521534 Z0.308739218593209 I0.0357810078258326 J-0.704275808296405 K0.708480173980159 W0.0277695589532238 F80
G1 X0.0974008176154157 Y-0.780660734703105 Z0.308739157547253 I0.135645937598649 J-0.692015082411916 K0.697316804214055 W0.128314379116722 F80
G1 X0.0974007300236819 Y-0.780660735923821 Z0.308739119645465 I0.232749494359953 J-0.66566685928306 K0.67195800893269 W0.226247076353768 F80
G1 X0.0974006353008599 Y-0.780660737084787 Z0.308739107958437 I0.325114920488329 J-0.62576751525503 K0.632920022489514 W0.319574014055095 F80
G1 X0.097400541120865 Y-0.780660738091947 Z0.308739123432986 I0.410861913488748 J-0.573129289704297 K0.580997549422652 W0.40639531603143 F80
G1 X0.0974004551136356 Y-0.780660738863708 Z0.30873916481545 I0.488244903707731 J-0.508823750110011 K0.517247586486713 W0.48494354269449 F80
G1 X0.0974003842469984 Y-0.780660739337544 Z0.308739228753254 I0.555688589263606 J-0.434159977928425 K0.442967905146532 W0.553619671198113 F80
G1 X0.0968818800692697 Y-0.735217544901185 Z0.307078557482023 I0.350660166683095 J0.611818716757154 K-0.611024325936057 W0.359672876989355 F80
G1 X0.0968819051234667 Y-0.735217545111103 Z0.307078465381042 I0.260019851180486 J0.655495516128574 K-0.65599185648697 W0.269053878526572 F80
G1 X0.0968819032166872 Y-0.735217545651468 Z0.30707836995348 I0.164086256629365 J0.685828254782456 K-0.687605222214801 W0.172957693411848 F80
G1 X0.0968818745034078 Y-0.735217546478502 Z0.307078278930345 I0.0648123234832403 J0.702199442749203 K-0.705220863154032 W0.0733405719891474 F80
G1 X0.0968818213098183 Y-0.735217547525204 Z0.307078199685825 I0.0357810078258326 J-0.704275808296405 K0.708480173980159 W0.0277695589532238 F80
G1 X0.0968817479453672 Y-0.735217548706775 Z0.30707813863987 I0.135645937598649 J-0.692015082411916 K0.697316804214055 W0.128314379116722 F80
G1 X0.0968816603536335 Y-0.735217549927491 Z0.307078100738082 I0.232749494359953 J-0.66566685928306 K0.67195800893269 W0.226247076353768 F80
G1 X0.0968815656308114 Y-0.735217551088456 Z0.307078089051053 I0.325114920488329 J-0.62576751525503 K0.632920022489514 W0.319574014055095 F80
G1 X0.0968814714508165 Y-0.735217552095617 Z0.307078104525602 I0.410861913488748 J-0.573129289704297 K0.580997549422652 W0.40639531603143 F80
G1 X0.0968813854435871 Y-0.735217552867377 Z0.307078145908067 I0.488244903707731 J-0.508823750110011 K0.517247586486713 W0.48494354269449 F80
G1 X0.0968813145769499 Y-0.735217553341214 Z0.30707820984587 I0.555688589263606 J-0.434159977928425 K0.442967905146532 W0.553619671198113 F80
G1 X0.096933976067849 Y-0.739762681246582 Z0.307102894686602 I0.555688589263606 J-0.434159977928425 K0.442967905146532 W0.553619671198113 F80
G1 X0.0969340469344862 Y-0.739762680772745 Z0.307102830748798 I0.488244903707731 J-0.508823750110011 K0.517247586486713 W0.48494354269449 F80
G1 X0.0969341329417155 Y-0.739762680000985 Z0.307102789366334 I0.410861913488748 J-0.573129289704297 K0.580997549422652 W0.40639531603143 F80
G1 X0.0969342271217105 Y-0.739762678993824 Z0.307102773891785 I0.325114920488329 J-0.62576751525503 K0.632920022489514 W0.319574014055095 F80
G1 X0.0969343218445325 Y-0.739762677832859 Z0.307102785578813 I0.232749494359953 J-0.66566685928306 K0.67195800893269 W0.226247076353768 F80
G1 X0.0969344094362662 Y-0.739762676612143 Z0.307102823480601 I0.135645937598649 J-0.692015082411916 K0.697316804214055 W0.128314379116722 F80
G1 X0.0969344828007174 Y-0.739762675430572 Z0.307102884526557 I0.0357810078258326 J-0.704275808296405 K0.708480173980159 W0.0277695589532238 F80
G1 X0.0969345359943068 Y-0.73976267438387 Z0.307102963771077 I0.0648123234832403 J0.702199442749203 K-0.705220863154032 W0.0733405719891474 F80
G1 X0.0969345647075863 Y-0.739762673556836 Z0.307103054794211 I0.164086256629365 J0.685828254782456 K-0.687605222214801 W0.172957693411848 F80
G1 X0.0969345666143658 Y-0.739762673016471 Z0.307103150221774 I0.260019851180486 J0.655495516128574 K-0.65599185648697 W0.269053878526572 F80
G1 X0.0969345415601688 Y-0.739762672806553 Z0.307103242322755 I0.350660166683095 J0.611818716757154 K-0.611024325936057 W0.359672876989355 F80
G1 X0.096987201892547 Y-0.744307700721866 Z0.307127926620435 I0.350660166683095 J0.611818716757154 K-0.611024325936057 W0.359672876989355 F80
G1 X0.0969872269467441 Y-0.744307700931784 Z0.307127834519454 I0.260019851180486 J0.655495516128573 K-0.65599185648697 W0.269053878526572 F80
G1 X0.0969872250399645 Y-0.744307701472149 Z0.307127739091892 I0.164086256629365 J0.685828254782456 K-0.687605222214801 W0.172957693411848 F80
G1 X0.0969871963266851 Y-0.744307702299183 Z0.307127648068757 I0.0648123234832403 J0.702199442749203 K-0.705220863154032 W0.0733405719891474 F80
G1 X0.0969871431330956 Y-0.744307703345885 Z0.307127568824237 I0.0357810078258326 J-0.704275808296405 K0.708480173980159 W0.0277695589532238 F80
G1 X0.0969870697686445 Y-0.744307704527456 Z0.307127507778281 I0.135645937598649 J-0.692015082411916 K0.697316804214055 W0.128314379116722 F80
G1 X0.0969869821769108 Y-0.744307705748172 Z0.307127469876493 I0.232749494359953 J-0.66566685928306 K0.67195800893269 W0.226247076353768 F80
G1 X0.0969868874540887 Y-0.744307706909137 Z0.307127458189465 I0.325114920488329 J-0.62576751525503 K0.632920022489514 W0.319574014055095 F80
G1 X0.0969867932740938 Y-0.744307707916298 Z0.307127473664014 I0.410861913488748 J-0.573129289704297 K0.580997549422652 W0.40639531603143 F80
G1 X0.0969867072668644 Y-0.744307708688058 Z0.307127515046478 I0.488244903707731 J-0.508823750110011 K0.517247586486713 W0.48494354269449 F80
G1 X0.0969866364002272 Y-0.744307709161895 Z0.307127578984282 I0.555688589263606 J-0.434159977928425 K0.442967905146532 W0.553619671198113 F80
G1 X0.0970392978911201 Y-0.748852837066728 Z0.30715226382501 I0.555688589263606 J-0.434159977928425 K0.442967905146532 W0.553619671198113 F80
G1 X0.0970393687577573 Y-0.748852836592892 Z0.307152199887207 I0.488244903707731 J-0.508823750110011 K0.517247586486713 W0.48494354269449 F80
G1 X0.0970394547649867 Y-0.748852835821131 Z0.307152158504743 I0.410861913488748 J-0.573129289704297 K0.580997549422652 W0.40639531603143 F80
G1 X0.0970395489449816 Y-0.748852834813971 Z0.307152143030194 I0.325114920488329 J-0.62576751525503 K0.632920022489514 W0.319574014055095 F80
G1 X0.0970396436678036 Y-0.748852833653005 Z0.307152154717222 I0.232749494359953 J-0.66566685928306 K0.67195800893269 W0.226247076353768 F80
G1 X0.0970397312595374 Y-0.748852832432289 Z0.30715219261901 I0.135645937598649 J-0.692015082411916 K0.697316804214055 W0.128314379116722 F80
G1 X0.0970398046239885 Y-0.748852831250718 Z0.307152253664965 I0.0357810078258326 J-0.704275808296405 K0.708480173980159 W0.0277695589532238 F80
G1 X0.0970398578175779 Y-0.748852830204017 Z0.307152332909485 I0.0648123234832403 J0.702199442749203 K-0.705220863154032 W0.0733405719891469 F80
G1 X0.0970398865308574 Y-0.748852829376983 Z0.30715242393262 I0.164086256629365 J0.685828254782456 K-0.687605222214801 W0.172957693411848 F80
G1 X0.0970398884376369 Y-0.748852828836618 Z0.307152519360183 I0.260019851180486 J0.655495516128574 K-0.65599185648697 W0.269053878526572 F80
G1 X0.0970398633834399 Y-0.748852828626699 Z0.307152611461163 I0.350660166683095 J0.611818716757154 K-0.611024325936057 W0.359672876989355 F80
G1 X0.0970925237157838 Y-0.753397856539054 Z0.307177295758827 I0.350660166683095 J0.611818716757154 K-0.611024325936057 W0.359672876989355 F80
G1 X0.0970925487699809 Y-0.753397856748973 Z0.307177203657847 I0.260019851180486 J0.655495516128574 K-0.65599185648697 W0.269053878526572 F80
G1 X0.0970925468632014 Y-0.753397857289338 Z0.307177108230284 I0.164086256629365 J0.685828254782456 K-0.687605222214801 W0.172957693411848 F80
G1 X0.0970925181499219 Y-0.753397858116372 Z0.307177017207149 I0.0648123234832403 J0.702199442749203 K-0.705220863154032 W0.0733405719891469 F80
G1 X0.0970924649563325 Y-0.753397859163074 Z0.307176937962629 I0.0357810078258326 J-0.704275808296405 K0.708480173980159 W0.0277695589532238 F80
G1 X0.0970923915918813 Y-0.753397860344645 Z0.307176876916674 I0.135645937598649 J-0.692015082411916 K0.697316804214055 W0.128314379116722 F80
G1 X0.0970923040001476 Y-0.753397861565361 Z0.307176839014886 I0.232749494359953 J-0.66566685928306 K0.67195800893269 W0.226247076353768 F80
G1 X0.0970922092773256 Y-0.753397862726326 Z0.307176827327858 I0.325114920488329 J-0.62576751525503 K0.632920022489514 W0.319574014055095 F80
G1 X0.0970921150973306 Y-0.753397863733487 Z0.307176842802407 I0.410861913488748 J-0.573129289704297 K0.580997549422652 W0.40639531603143 F80
G1 X0.0970920290901013 Y-0.753397864505247 Z0.307176884184871 I0.488244903707731 J-0.508823750110011 K0.517247586486713 W0.48494354269449 F80
G1 X0.0970919582234641 Y-0.753397864979084 Z0.307176948122674 I0.555688589263606 J-0.434159977928425 K0.442967905146532 W0.553619671198113 F80
G1 X0.097144619714362 Y-0.757942992884349 Z0.307201632963406 I0.555688589263606 J-0.434159977928425 K0.442967905146532 W0.553619671198113 F80
G1 X0.0971446905809991 Y-0.757942992410512 Z0.307201569025602 I0.488244903707731 J-0.508823750110011 K0.517247586486713 W0.48494354269449 F80
G1 X0.0971447765882285 Y-0.757942991638751 Z0.307201527643138 I0.410861913488748 J-0.573129289704297 K0.580997549422652 W0.40639531603143 F80
G1 X0.0971448707682235 Y-0.757942990631591 Z0.307201512168589 I0.325114920488329 J-0.62576751525503 K0.632920022489514 W0.319574014055095 F80
G1 X0.0971449654910455 Y-0.757942989470626 Z0.307201523855617 I0.232749494359953 J-0.66566685928306 K0.67195800893269 W0.226247076353768 F80
G1 X0.0971450530827792 Y-0.757942988249909 Z0.307201561757405 I0.135645937598649 J-0.692015082411916 K0.697316804214055 W0.128314379116722 F80
G1 X0.0971451264472304 Y-0.757942987068338 Z0.30720162280336 I0.0357810078258326 J-0.704275808296405 K0.708480173980159 W0.0277695589532238 F80
G1 X0.0971451796408198 Y-0.757942986021637 Z0.30720170204788 I0.0648123234832403 J0.702199442749203 K-0.705220863154032 W0.0733405719891474 F80
G1 X0.0971452083540992 Y-0.757942985194603 Z0.307201793071015 I0.164086256629365 J0.685828254782456 K-0.687605222214801 W0.172957693411848 F80
G1 X0.0971452102608788 Y-0.757942984654238 Z0.307201888498578 I0.260019851180486 J0.655495516128573 K-0.65599185648697 W0.269053878526572 F80
G1 X0.0971451852066817 Y-0.757942984444319 Z0.307201980599558 I0.350660166683095 J0.611818716757154 K-0.611024325936057 W0.359672876989355 F80
G1 X0.0971978455390394 Y-0.762488012357858 Z0.307226664897229 I0.350660166683095 J0.611818716757154 K-0.611024325936057 W0.359672876989355 F80
G1 X0.0971978705932364 Y-0.762488012567776 Z0.307226572796248 I0.260019851180486 J0.655495516128574 K-0.65599185648697 W0.269053878526572 F80
G1 X0.0971978686864569 Y-0.762488013108141 Z0.307226477368686 I0.164086256629365 J0.685828254782456 K-0.687605222214801 W0.172957693411848 F80
G1 X0.0971978399731775 Y-0.762488013935175 Z0.307226386345551 I0.0648123234832403 J0.702199442749203 K-0.705220863154032 W0.0733405719891474 F80
G1 X0.097197786779588 Y-0.762488014981877 Z0.307226307101031 I0.0357810078258326 J-0.704275808296405 K0.708480173980159 W0.0277695589532238 F80
G1 X0.0971977134151369 Y-0.762488016163448 Z0.307226246055075 I0.135645937598649 J-0.692015082411916 K0.697316804214055 W0.128314379116722 F80
G1 X0.0971976258234031 Y-0.762488017384164 Z0.307226208153288 I0.232749494359953 J-0.66566685928306 K0.67195800893269 W0.226247076353768 F80
G1 X0.0971975311005811 Y-0.76248801854513 Z0.307226196466259 I0.325114920488329 J-0.62576751525503 K0.632920022489514 W0.319574014055095 F80
G1 X0.0971974369205862 Y-0.76248801955229 Z0.307226211940808 I0.410861913488748 J-0.573129289704297 K0.580997549422652 W0.40639531603143 F80
G1 X0.0971973509133568 Y-0.76248802032405 Z0.307226253323273 I0.488244903707731 J-0.508823750110011 K0.517247586486713 W0.48494354269449 F80
G1 X0.0971972800467196 Y-0.762488020797887 Z0.307226317261076 I0.555688589263606 J-0.434159977928425 K0.442967905146532 W0.553619671198113 F80
G1 X0.0972499415376175 Y-0.767033148703153 Z0.307251002101807 I0.555688589263606 J-0.434159977928425 K0.442967905146532 W0.553619671198113 F80
G1 X0.0972500124042547 Y-0.767033148229316 Z0.307250938164004 I0.488244903707731 J-0.508823750110011 K0.517247586486713 W0.48494354269449 F80
G1 X0.0972500984114841 Y-0.767033147457556 Z0.307250896781539 I0.410861913488748 J-0.573129289704297 K0.580997549422652 W0.40639531603143 F80
G1 X0.097250192591479 Y-0.767033146450396 Z0.30725088130699 I0.325114920488329 J-0.62576751525503 K0.632920022489514 W0.319574014055095 F80
G1 X0.097250287314301 Y-0.76703314528943 Z0.307250892994019 I0.232749494359953 J-0.66566685928306 K0.67195800893269 W0.226247076353768 F80
G1 X0.0972503749060348 Y-0.767033144068714 Z0.307250930895806 I0.135645937598649 J-0.692015082411916 K0.697316804214055 W0.128314379116722 F80
G1 X0.0972504482704859 Y-0.767033142887143 Z0.307250991941762 I0.0357810078258326 J-0.704275808296405 K0.708480173980159 W0.0277695589532238 F80
G1 X0.0972505014640754 Y-0.767033141840441 Z0.307251071186282 I0.0648123234832403 J0.702199442749203 K-0.705220863154032 W0.0733405719891474 F80
G1 X0.0972505301773548 Y-0.767033141013408 Z0.307251162209417 I0.164086256629365 J0.685828254782456 K-0.687605222214801 W0.172957693411848 F80
G1 X0.0972505320841343 Y-0.767033140473042 Z0.307251257636979 I0.260019851180486 J0.655495516128574 K-0.65599185648697 W0.269053878526572 F80
G1 X0.0972505070299373 Y-0.767033140263124 Z0.30725134973796 I0.350660166683095 J0.611818716757154 K-0.611024325936057 W0.359672876989355 F80
G1 X0.0973031673622813 Y-0.771578168175481 Z0.307276034035624 I0.350660166683095 J0.611818716757154 K-0.611024325936057 W0.359672876989355 F80
G1 X0.0973031924164783 Y-0.7715781683854 Z0.307275941934643 I0.260019851180486 J0.655495516128574 K-0.65599185648697 W0.269053878526572 F80
G1 X0.0973031905096988 Y-0.771578168925765 Z0.307275846507081 I0.164086256629365 J0.685828254782456 K-0.687605222214801 W0.172957693411848 F80
G1 X0.0973031617964193 Y-0.771578169752799 Z0.307275755483946 I0.0648123234832403 J0.702199442749203 K-0.705220863154032 W0.0733405719891469 F80
G1 X0.0973031086028299 Y-0.771578170799501 Z0.307275676239426 I0.0357810078258326 J-0.704275808296405 K0.708480173980159 W0.0277695589532238 F80
G1 X0.0973030352383787 Y-0.771578171981072 Z0.307275615193471 I0.135645937598649 J-0.692015082411916 K0.697316804214055 W0.128314379116722 F80
G1 X0.097302947646645 Y-0.771578173201788 Z0.307275577291683 I0.232749494359953 J-0.66566685928306 K0.67195800893269 W0.226247076353768 F80
G1 X0.097302852923823 Y-0.771578174362753 Z0.307275565604654 I0.325114920488329 J-0.62576751525503 K0.632920022489514 W0.319574014055095 F80
G1 X0.0973027587438281 Y-0.771578175369913 Z0.307275581079203 I0.410861913488748 J-0.573129289704297 K0.580997549422652 W0.40639531603143 F80
G1 X0.0973026727365987 Y-0.771578176141674 Z0.307275622461668 I0.488244903707731 J-0.508823750110011 K0.517247586486713 W0.48494354269449 F80
G1 X0.0973026018699615 Y-0.771578176615511 Z0.307275686399471 I0.555688589263606 J-0.434159977928425 K0.442967905146532 W0.553619671198113 F80
G1 X0.0973552633608545 Y-0.776123304520356 Z0.3073003712402 I0.555688589263606 J-0.434159977928425 K0.442967905146532 W0.553619671198113 F80
G1 X0.0973553342274917 Y-0.776123304046519 Z0.307300307302396 I0.488244903707731 J-0.508823750110011 K0.517247586486713 W0.48494354269449 F80
G1 X0.0973554202347211 Y-0.776123303274759 Z0.307300265919932 I0.410861913488748 J-0.573129289704297 K0.580997549422652 W0.40639531603143 F80
G1 X0.097355514414716 Y-0.776123302267598 Z0.307300250445383 I0.325114920488329 J-0.62576751525503 K0.632920022489514 W0.319574014055095 F80
G1 X0.097355609137538 Y-0.776123301106633 Z0.307300262132411 I0.232749494359953 J-0.66566685928306 K0.67195800893269 W0.226247076353768 F80
G1 X0.0973556967292718 Y-0.776123299885916 Z0.307300300034199 I0.135645937598649 J-0.692015082411916 K0.697316804214055 W0.128314379116722 F80
G1 X0.0973557700937229 Y-0.776123298704346 Z0.307300361080155 I0.0357810078258326 J-0.704275808296405 K0.708480173980159 W0.0277695589532238 F80
G1 X0.0973558232873124 Y-0.776123297657644 Z0.307300440324675 I0.0648123234832403 J0.702199442749203 K-0.705220863154032 W0.0733405719891474 F80
G1 X0.0973558520005918 Y-0.77612329683061 Z0.30730053134781 I0.164086256629365 J0.685828254782456 K-0.687605222214801 W0.172957693411848 F80
G1 X0.0973558539073713 Y-0.776123296290245 Z0.307300626775372 I0.260019851180486 J0.655495516128573 K-0.65599185648697 W0.269053878526572 F80
G1 X0.0973558288531743 Y-0.776123296080326 Z0.307300718876353 I0.350660166683095 J0.611818716757154 K-0.611024325936057 W0.359672876989355 F80
G1 X0.0974084891855523 Y-0.780668323995625 Z0.307325403174033 I0.350660166683095 J0.611818716757154 K-0.611024325936057 W0.359672876989355 F80
G1 X0.0974085142397494 Y-0.780668324205544 Z0.307325311073052 I0.260019851180486 J0.655495516128574 K-0.65599185648697 W0.269053878526572 F80
G1 X0.0974085123329699 Y-0.780668324745909 Z0.30732521564549 I0.164086256629365 J0.685828254782456 K-0.687605222214801 W0.172957693411848 F80
G1 X0.0974084836196904 Y-0.780668325572943 Z0.307325124622355 I0.0648123234832403 J0.702199442749203 K-0.705220863154032 W0.0733405719891474 F80
G1 X0.097408430426101 Y-0.780668326619645 Z0.307325045377835 I0.0357810078258326 J-0.704275808296405 K0.708480173980159 W0.0277695589532238 F80
G1 X0.0974083570616498 Y-0.780668327801216 Z0.307324984331879 I0.135645937598649 J-0.692015082411916 K0.697316804214055 W0.128314379116722 F80
G1 X0.0974082694699161 Y-0.780668329021932 Z0.307324946430091 I0.232749494359953 J-0.66566685928306 K0.67195800893269 W0.226247076353768 F80
G1 X0.0974081747470941 Y-0.780668330182897 Z0.307324934743063 I0.325114920488329 J-0.62576751525503 K0.632920022489514 W0.319574014055095 F80
G1 X0.0974080805670991 Y-0.780668331190058 Z0.307324950217612 I0.410861913488748 J-0.573129289704297 K0.580997549422652 W0.40639531603143 F80
G1 X0.0974079945598698 Y-0.780668331961818 Z0.307324991600076 I0.488244903707731 J-0.508823750110011 K0.517247586486713 W0.48494354269449 F80
G1 X0.0974079236932326 Y-0.780668332435655 Z0.30732505553788 I0.555688589263606 J-0.434159977928425 K0.442967905146532 W0.553619671198113 F80
G1 X0.0968894195155039 Y-0.735225137999295 Z0.305664384266649 I0.350660166683095 J0.611818716757154 K-0.611024325936057 W0.359672876989355 F80
G1 X0.0968894445697009 Y-0.735225138209213 Z0.305664292165668 I0.260019851180486 J0.655495516128574 K-0.65599185648697 W0.269053878526572 F80
G1 X0.0968894426629214 Y-0.735225138749578 Z0.305664196738106 I0.164086256629365 J0.685828254782456 K-0.687605222214801 W0.172957693411848 F80
G1 X0.096889413949642 Y-0.735225139576613 Z0.305664105714971 I0.0648123234832403 J0.702199442749203 K-0.705220863154032 W0.0733405719891474 F80
G1 X0.0968893607560525 Y-0.735225140623314 Z0.305664026470451 I0.0357810078258326 J-0.704275808296405 K0.708480173980159 W0.0277695589532238 F80
G1 X0.0968892873916014 Y-0.735225141804885 Z0.305663965424496 I0.135645937598649 J-0.692015082411916 K0.697316804214055 W0.128314379116722 F80
G1 X0.0968891997998676 Y-0.735225143025601 Z0.305663927522708 I0.232749494359953 J-0.66566685928306 K0.67195800893269 W0.226247076353768 F80
G1 X0.0968891050770456 Y-0.735225144186567 Z0.305663915835679 I0.325114920488329 J-0.62576751525503 K0.632920022489514 W0.319574014055095 F80
G1 X0.0968890108970507 Y-0.735225145193727 Z0.305663931310228 I0.410861913488748 J-0.573129289704297 K0.580997549422652 W0.40639531603143 F80
G1 X0.0968889248898213 Y-0.735225145965487 Z0.305663972692693 I0.488244903707731 J-0.508823750110011 K0.517247586486713 W0.48494354269449 F80
G1 X0.0968888540231841 Y-0.735225146439324 Z0.305664036630496 I0.555688589263606 J-0.434159977928425 K0.442967905146532 W0.553619671198113 F80
G1 X0.0969415155140832 Y-0.739770274344692 Z0.305688721471228 I0.555688589263606 J-0.434159977928425 K0.442967905146532 W0.553619671198113 F80
G1 X0.0969415863807204 Y-0.739770273870855 Z0.305688657533424 I0.488244903707731 J-0.508823750110011 K0.517247586486713 W0.48494354269449 F80
G1 X0.0969416723879497 Y-0.739770273099095 Z0.30568861615096 I0.410861913488748 J-0.573129289704297 K0.580997549422652 W0.40639531603143 F80
G1 X0.0969417665679447 Y-0.739770272091935 Z0.305688600676411 I0.325114920488329 J-0.62576751525503 K0.632920022489514 W0.319574014055095 F80
G1 X0.0969418612907667 Y-0.739770270930969 Z0.305688612363439 I0.232749494359953 J-0.66566685928306 K0.67195800893269 W0.226247076353768 F80
G1 X0.0969419488825004 Y-0.739770269710253 Z0.305688650265227 I0.135645937598649 J-0.692015082411916 K0.697316804214055 W0.128314379116722 F80
G1 X0.0969420222469516 Y-0.739770268528682 Z0.305688711311183 I0.0357810078258326 J-0.704275808296405 K0.708480173980159 W0.0277695589532238 F80
G1 X0.096942075440541 Y-0.73977026748198 Z0.305688790555703 I0.0648123234832403 J0.702199442749203 K-0.705220863154032 W0.0733405719891474 F80
G1 X0.0969421041538205 Y-0.739770266654946 Z0.305688881578838 I0.164086256629365 J0.685828254782456 K-0.687605222214801 W0.172957693411848 F80
G1 X0.0969421060606 Y-0.739770266114581 Z0.3056889770064 I0.260019851180486 J0.655495516128574 K-0.65599185648697 W0.269053878526572 F80
G1 X0.0969420810064029 Y-0.739770265904663 Z0.305689069107381 I0.350660166683095 J0.611818716757154 K-0.611024325936057 W0.359672876989355 F80
G1 X0.0969947413387812 Y-0.744315293819976 Z0.305713753405061 I0.350660166683095 J0.611818716757154 K-0.611024325936057 W0.359672876989355 F80
G1 X0.0969947663929782 Y-0.744315294029894 Z0.30571366130408 I0.260019851180486 J0.655495516128573 K-0.65599185648697 W0.269053878526572 F80
G1 X0.0969947644861987 Y-0.744315294570259 Z0.305713565876518 I0.164086256629365 J0.685828254782456 K-0.687605222214801 W0.172957693411848 F80
G1 X0.0969947357729193 Y-0.744315295397293 Z0.305713474853383 I0.0648123234832403 J0.702199442749203 K-0.705220863154032 W0.0733405719891474 F80
G1 X0.0969946825793298 Y-0.744315296443995 Z0.305713395608863 I0.0357810078258326 J-0.704275808296405 K0.708480173980159 W0.0277695589532238 F80
G1 X0.0969946092148787 Y-0.744315297625566 Z0.305713334562907 I0.135645937598649 J-0.692015082411916 K0.697316804214055 W0.128314379116722 F80
G1 X0.0969945216231449 Y-0.744315298846282 Z0.30571329666112 I0.232749494359953 J-0.66566685928306 K0.67195800893269 W0.226247076353768 F80
G1 X0.0969944269003229 Y-0.744315300007248 Z0.305713284974091 I0.325114920488329 J-0.62576751525503 K0.632920022489514 W0.319574014055095 F80
G1 X0.096994332720328 Y-0.744315301014408 Z0.30571330044864 I0.410861913488748 J-0.573129289704297 K0.580997549422652 W0.40639531603143 F80
G1 X0.0969942467130986 Y-0.744315301786168 Z0.305713341831104 I0.488244903707731 J-0.508823750110011 K0.517247586486713 W0.48494354269449 F80
G1 X0.0969941758464614 Y-0.744315302260005 Z0.305713405768908 I0.555688589263606 J-0.434159977928425 K0.442967905146532 W0.553619671198113 F80
G1 X0.0970468373373543 Y-0.748860430164839 Z0.305738090609637 I0.555688589263606 J-0.434159977928425 K0.442967905146532 W0.553619671198113 F80
G1 X0.0970469082039915 Y-0.748860429691002 Z0.305738026671833 I0.488244903707731 J-0.508823750110011 K0.517247586486713 W0.48494354269449 F80
G1 X0.0970469942112208 Y-0.748860428919242 Z0.305737985289369 I0.410861913488748 J-0.573129289704297 K0.580997549422652 W0.40639531603143 F80
G1 X0.0970470883912158 Y-0.748860427912081 Z0.30573796981482 I0.325114920488329 J-0.62576751525503 K0.632920022489514 W0.319574014055095 F80
G1 X0.0970471831140378 Y-0.748860426751116 Z0.305737981501848 I0.232749494359953 J-0.66566685928306 K0.67195800893269 W0.226247076353768 F80
G1 X0.0970472707057715 Y-0.7488604255304 Z0.305738019403636 I0.135645937598649 J-0.692015082411916 K0.697316804214055 W0.128314379116722 F80
G1 X0.0970473440702227 Y-0.748860424348829 Z0.305738080449591 I0.0357810078258326 J-0.704275808296405 K0.708480173980159 W0.0277695589532238 F80
G1 X0.0970473972638121 Y-0.748860423302127 Z0.305738159694111 I0.0648123234832403 J0.702199442749203 K-0.705220863154032 W0.0733405719891469 F80
G1 X0.0970474259770916 Y-0.748860422475093 Z0.305738250717246 I0.164086256629365 J0.685828254782456 K-0.687605222214801 W0.172957693411848 F80
G1 X0.0970474278838711 Y-0.748860421934728 Z0.305738346144809 I0.260019851180486 J0.655495516128574 K-0.65599185648697 W0.269053878526572 F80
G1 X0.0970474028296741 Y-0.74886042172481 Z0.305738438245789 I0.350660166683095 J0.611818716757154 K-0.611024325936057 W0.359672876989355 F80
G1 X0.097100063162018 Y-0.753405449637165 Z0.305763122543453 I0.350660166683095 J0.611818716757154 K-0.611024325936057 W0.359672876989355 F80
G1 X0.0971000882162151 Y-0.753405449847083 Z0.305763030442473 I0.260019851180486 J0.655495516128574 K-0.65599185648697 W0.269053878526572 F80
G1 X0.0971000863094356 Y-0.753405450387448 Z0.30576293501491 I0.164086256629365 J0.685828254782456 K-0.687605222214801 W0.172957693411848 F80
G1 X0.0971000575961561 Y-0.753405451214482 Z0.305762843991775 I0.0648123234832403 J0.702199442749203 K-0.705220863154032 W0.0733405719891469 F80
G1 X0.0971000044025667 Y-0.753405452261184 Z0.305762764747255 I0.0357810078258326 J-0.704275808296405 K0.708480173980159 W0.0277695589532238 F80
G1 X0.0970999310381155 Y-0.753405453442755 Z0.3057627037013 I0.135645937598649 J-0.692015082411916 K0.697316804214055 W0.128314379116722 F80
G1 X0.0970998434463818 Y-0.753405454663471 Z0.305762665799512 I0.232749494359953 J-0.66566685928306 K0.67195800893269 W0.226247076353768 F80
G1 X0.0970997487235598 Y-0.753405455824437 Z0.305762654112484 I0.325114920488329 J-0.62576751525503 K0.632920022489514 W0.319574014055095 F80
G1 X0.0970996545435648 Y-0.753405456831597 Z0.305762669587033 I0.410861913488748 J-0.573129289704297 K0.580997549422652 W0.40639531603143 F80
G1 X0.0970995685363354 Y-0.753405457603357 Z0.305762710969497 I0.488244903707731 J-0.508823750110011 K0.517247586486713 W0.48494354269449 F80
G1 X0.0970994976696983 Y-0.753405458077194 Z0.305762774907301 I0.555688589263606 J-0.434159977928425 K0.442967905146532 W0.553619671198113 F80
G1 X0.0971521591605962 Y-0.757950585982459 Z0.305787459748032 I0.555688589263606 J-0.434159977928425 K0.442967905146532 W0.553619671198113 F80
G1 X0.0971522300272333 Y-0.757950585508622 Z0.305787395810228 I0.488244903707731 J-0.508823750110011 K0.517247586486713 W0.48494354269449 F80
G1 X0.0971523160344627 Y-0.757950584736862 Z0.305787354427764 I0.410861913488748 J-0.573129289704297 K0.580997549422652 W0.40639531603143 F80
G1 X0.0971524102144576 Y-0.757950583729702 Z0.305787338953215 I0.325114920488329 J-0.62576751525503 K0.632920022489514 W0.319574014055095 F80
G1 X0.0971525049372796 Y-0.757950582568736 Z0.305787350640243 I0.232749494359953 J-0.66566685928306 K0.67195800893269 W0.226247076353768 F80
G1 X0.0971525925290134 Y-0.75795058134802 Z0.305787388542031 I0.135645937598649 J-0.692015082411916 K0.697316804214055 W0.128314379116722 F80
G1 X0.0971526658934645 Y-0.757950580166449 Z0.305787449587987 I0.0357810078258326 J-0.704275808296405 K0.708480173980159 W0.0277695589532238 F80
G1 X0.097152719087054 Y-0.757950579119747 Z0.305787528832506 I0.0648123234832403 J0.702199442749203 K-0.705220863154032 W0.0733405719891474 F80
G1 X0.0971527478003334 Y-0.757950578292713 Z0.305787619855641 I0.164086256629365 J0.685828254782456 K-0.687605222214801 W0.172957693411848 F80
G1 X0.097152749707113 Y-0.757950577752348 Z0.305787715283204 I0.260019851180486 J0.655495516128573 K-0.65599185648697 W0.269053878526572 F80
G1 X0.0971527246529159 Y-0.75795057754243 Z0.305787807384184 I0.350660166683095 J0.611818716757154 K-0.611024325936057 W0.359672876989355 F80
G1 X0.0972053849852736 Y-0.762495605455968 Z0.305812491681855 I0.350660166683095 J0.611818716757154 K-0.611024325936057 W0.359672876989355 F80
G1 X0.0972054100394706 Y-0.762495605665887 Z0.305812399580874 I0.260019851180486 J0.655495516128574 K-0.65599185648697 W0.269053878526572 F80
G1 X0.0972054081326911 Y-0.762495606206252 Z0.305812304153312 I0.164086256629365 J0.685828254782456 K-0.687605222214801 W0.172957693411848 F80
G1 X0.0972053794194116 Y-0.762495607033286 Z0.305812213130177 I0.0648123234832403 J0.702199442749203 K-0.705220863154032 W0.0733405719891474 F80
G1 X0.0972053262258222 Y-0.762495608079987 Z0.305812133885657 I0.0357810078258326 J-0.704275808296405 K0.708480173980159 W0.0277695589532238 F80
G1 X0.0972052528613711 Y-0.762495609261558 Z0.305812072839702 I0.135645937598649 J-0.692015082411916 K0.697316804214055 W0.128314379116722 F80
G1 X0.0972051652696373 Y-0.762495610482274 Z0.305812034937914 I0.232749494359953 J-0.66566685928306 K0.67195800893269 W0.226247076353768 F80
G1 X0.0972050705468153 Y-0.76249561164324 Z0.305812023250885 I0.325114920488329 J-0.62576751525503 K0.632920022489514 W0.319574014055095 F80
G1 X0.0972049763668204 Y-0.7624956126504 Z0.305812038725434 I0.410861913488748 J-0.573129289704297 K0.580997549422652 W0.40639531603143 F80
G1 X0.097204890359591 Y-0.76249561342216 Z0.305812080107899 I0.488244903707731 J-0.508823750110011 K0.517247586486713 W0.48494354269449 F80
G1 X0.0972048194929538 Y-0.762495613895997 Z0.305812144045702 I0.555688589263606 J-0.434159977928425 K0.442967905146532 W0.553619671198113 F80
G1 X0.0972574809838517 Y-0.767040741801263 Z0.305836828886433 I0.555688589263606 J-0.434159977928425 K0.442967905146532 W0.553619671198113 F80
G1 X0.0972575518504889 Y-0.767040741327427 Z0.30583676494863 I0.488244903707731 J-0.508823750110011 K0.517247586486713 W0.48494354269449 F80
G1 X0.0972576378577182 Y-0.767040740555666 Z0.305836723566165 I0.410861913488748 J-0.573129289704297 K0.580997549422652 W0.40639531603143 F80
G1 X0.0972577320377132 Y-0.767040739548506 Z0.305836708091616 I0.325114920488329 J-0.62576751525503 K0.632920022489514 W0.319574014055095 F80
G1 X0.0972578267605352 Y-0.76704073838754 Z0.305836719778645 I0.232749494359953 J-0.66566685928306 K0.67195800893269 W0.226247076353768 F80
G1 X0.097257914352269 Y-0.767040737166824 Z0.305836757680433 I0.135645937598649 J-0.692015082411916 K0.697316804214055 W0.128314379116722 F80
G1 X0.0972579877167201 Y-0.767040735985253 Z0.305836818726388 I0.0357810078258326 J-0.704275808296405 K0.708480173980159 W0.0277695589532238 F80
G1 X0.0972580409103095 Y-0.767040734938552 Z0.305836897970908 I0.0648123234832403 J0.702199442749203 K-0.705220863154032 W0.0733405719891474 F80
G1 X0.097258069623589 Y-0.767040734111518 Z0.305836988994043 I0.164086256629365 J0.685828254782456 K-0.687605222214801 W0.172957693411848 F80
G1 X0.0972580715303685 Y-0.767040733571153 Z0.305837084421605 I0.260019851180486 J0.655495516128574 K-0.65599185648697 W0.269053878526572 F80
G1 X0.0972580464761714 Y-0.767040733361234 Z0.305837176522586 I0.350660166683095 J0.611818716757154 K-0.611024325936057 W0.359672876989355 F80
G1 X0.0973107068085154 Y-0.771585761273592 Z0.30586186082025 I0.350660166683095 J0.611818716757154 K-0.611024325936057 W0.359672876989355 F80
G1 X0.0973107318627125 Y-0.77158576148351 Z0.305861768719269 I0.260019851180486 J0.655495516128574 K-0.65599185648697 W0.269053878526572 F80
G1 X0.097310729955933 Y-0.771585762023875 Z0.305861673291707 I0.164086256629365 J0.685828254782456 K-0.687605222214801 W0.172957693411848 F80
G1 X0.0973107012426535 Y-0.771585762850909 Z0.305861582268572 I0.0648123234832403 J0.702199442749203 K-0.705220863154032 W0.0733405719891469 F80
G1 X0.0973106480490641 Y-0.771585763897611 Z0.305861503024052 I0.0357810078258326 J-0.704275808296405 K0.708480173980159 W0.0277695589532238 F80
G1 X0.0973105746846129 Y-0.771585765079182 Z0.305861441978097 I0.135645937598649 J-0.692015082411916 K0.697316804214055 W0.128314379116722 F80
G1 X0.0973104870928792 Y-0.771585766299898 Z0.305861404076309 I0.232749494359953 J-0.66566685928306 K0.67195800893269 W0.226247076353768 F80
G1 X0.0973103923700572 Y-0.771585767460864 Z0.30586139238928 I0.325114920488329 J-0.62576751525503 K0.632920022489514 W0.319574014055095 F80
G1 X0.0973102981900622 Y-0.771585768468024 Z0.305861407863829 I0.410861913488748 J-0.573129289704297 K0.580997549422652 W0.40639531603143 F80
G1 X0.0973102121828329 Y-0.771585769239784 Z0.305861449246294 I0.488244903707731 J-0.508823750110011 K0.517247586486713 W0.48494354269449 F80
G1 X0.0973101413161957 Y-0.771585769713621 Z0.305861513184097 I0.555688589263606 J-0.434159977928425 K0.442967905146532 W0.553619671198113 F80
G1 X0.0973628028070887 Y-0.776130897618466 Z0.305886198024826 I0.555688589263606 J-0.434159977928425 K0.442967905146532 W0.553619671198113 F80
G1 X0.0973628736737259 Y-0.776130897144629 Z0.305886134087023 I0.488244903707731 J-0.508823750110011 K0.517247586486713 W0.48494354269449 F80
G1 X0.0973629596809553 Y-0.776130896372869 Z0.305886092704558 I0.410861913488748 J-0.573129289704297 K0.580997549422652 W0.40639531603143 F80
G1 X0.0973630538609502 Y-0.776130895365709 Z0.305886077230009 I0.325114920488329 J-0.62576751525503 K0.632920022489514 W0.319574014055095 F80
G1 X0.0973631485837722 Y-0.776130894204743 Z0.305886088917037 I0.232749494359953 J-0.66566685928306 K0.67195800893269 W0.226247076353768 F80
G1 X0.0973632361755059 Y-0.776130892984027 Z0.305886126818825 I0.135645937598649 J-0.692015082411916 K0.697316804214055 W0.128314379116722 F80
G1 X0.0973633095399571 Y-0.776130891802456 Z0.305886187864781 I0.0357810078258326 J-0.704275808296405 K0.708480173980159 W0.0277695589532238 F80
G1 X0.0973633627335465 Y-0.776130890755754 Z0.305886267109301 I0.0648123234832403 J0.702199442749203 K-0.705220863154032 W0.0733405719891474 F80
G1 X0.097363391446826 Y-0.77613088992872 Z0.305886358132436 I0.164086256629365 J0.685828254782456 K-0.687605222214801 W0.172957693411848 F80
G1 X0.0973633933536055 Y-0.776130889388355 Z0.305886453559998 I0.260019851180486 J0.655495516128573 K-0.65599185648697 W0.269053878526572 F80
G1 X0.0973633682994085 Y-0.776130889178437 Z0.305886545660979 I0.350660166683095 J0.611818716757154 K-0.611024325936057 W0.359672876989355 F80
G1 X0.0974160286317865 Y-0.780675917093736 Z0.305911229958659 I0.350660166683095 J0.611818716757154 K-0.611024325936057 W0.359672876989355 F80
G1 X0.0974160536859836 Y-0.780675917303654 Z0.305911137857678 I0.260019851180486 J0.655495516128574 K-0.65599185648697 W0.269053878526572 F80
G1 X0.0974160517792041 Y-0.780675917844019 Z0.305911042430116 I0.164086256629365 J0.685828254782456 K-0.687605222214801 W0.172957693411848 F80
G1 X0.0974160230659246 Y-0.780675918671053 Z0.305910951406981 I0.0648123234832403 J0.702199442749203 K-0.705220863154032 W0.0733405719891474 F80
G1 X0.0974159698723352 Y-0.780675919717755 Z0.305910872162461 I0.0357810078258326 J-0.704275808296405 K0.708480173980159 W0.0277695589532238 F80
G1 X0.097415896507884 Y-0.780675920899326 Z0.305910811116505 I0.135645937598649 J-0.692015082411916 K0.697316804214055 W0.128314379116722 F80
G1 X0.0974158089161503 Y-0.780675922120042 Z0.305910773214718 I0.232749494359953 J-0.66566685928306 K0.67195800893269 W0.226247076353768 F80
G1 X0.0974157141933283 Y-0.780675923281008 Z0.305910761527689 I0.325114920488329 J-0.62576751525503 K0.632920022489514 W0.319574014055095 F80
G1 X0.0974156200133333 Y-0.780675924288168 Z0.305910777002238 I0.410861913488748 J-0.573129289704297 K0.580997549422652 W0.40639531603143 F80
G1 X0.097415534006104 Y-0.780675925059928 Z0.305910818384703 I0.488244903707731 J-0.508823750110011 K0.517247586486713 W0.48494354269449 F80
G1 X0.0974154631394668 Y-0.780675925533765 Z0.305910882322506 I0.555688589263606 J-0.434159977928425 K0.442967905146532 W0.553619671198113 F80

; End G-code
